{"type": "FeatureCollection", "features": [ {"type": "Feature", "properties": {"norad_id": 39634, "name": "SENTINEL-1A", "group": "resource", "lat": 7.181530743032662, "lon": -179.67477658268018, "alt_km": 697.7351305140846, "timestamp": "2025-12-20T03:42:47.049122+00:00", "meta": {"OBJECT_NAME": "SENTINEL-1A", "OBJECT_ID": "2014-016A", "EPOCH": "2025-12-19T20:20:30.317568", "MEAN_MOTION": 14.59201336, "ECCENTRICITY": 0.0001271, "INCLINATION": 98.1796, "RA_OF_ASC_NODE": 358.9842, "ARG_OF_PERICENTER": 84.8287, "MEAN_ANOMALY": 275.3057, "EPHEMERIS_TYPE": 0, "CLASSIFICATION_TYPE": "U", "NORAD_CAT_ID": 39634, "ELEMENT_SET_NO": 999, "REV_AT_EPOCH": 62386, "BSTAR": -5.9089e-07, "MEAN_MOTION_DOT": -4.9e-07, "MEAN_MOTION_DDOT": 0}, "tle": {"line1": "1 39634U 14016A   25353.84757312 -.00000049  00000+0 -59089-6 0  9993", "line2": "2 39634  98.1796 358.9842 0001271  84.8287 275.3057 14.59201336623862"}}, "geometry": {"type": "Point", "coordinates": [-179.67477658268018, 7.181530743032662]}}, {"type": "Feature", "properties": {"norad_id": 39731, "name": "KAZEOSAT 1", "group": "resource", "lat": 49.6298531866959, "lon": 55.95630655959322, "alt_km": 746.5544305359726, "timestamp": "2025-12-20T03:42:47.049132+00:00", "meta": {"OBJECT_NAME": "KAZEOSAT 1", "OBJECT_ID": "2014-024A", "EPOCH": "2025-12-19T20:49:09.814944", "MEAN_MOTION": 14.4206633, "ECCENTRICITY": 0.0001164, "INCLINATION": 98.3432, "RA_OF_ASC_NODE": 65.6153, "ARG_OF_PERICENTER": 95.8659, "MEAN_ANOMALY": 264.2664, "EPHEMERIS_TYPE": 0, "CLASSIFICATION_TYPE": "U", "NORAD_CAT_ID": 39731, "ELEMENT_SET_NO": 999, "REV_AT_EPOCH": 61271, "BSTAR": 6.2491e-05, "MEAN_MOTION_DOT": 1.62e-06, "MEAN_MOTION_DDOT": 0}, "tle": {"line1": "1 39731U 14024A   25353.86747471  .00000162  00000+0  62491-4 0  9990", "line2": "2 39731  98.3432  65.6153 0001164  95.8659 264.2664 14.42066330612710"}}, "geometry": {"type": "Point", "coordinates": [55.95630655959322, 49.6298531866959]}}, {"type": "Feature", "properties": {"norad_id": 39766, "name": "ALOS-2", "group": "resource", "lat": -31.137516971364803, "lon": -95.93069007980448, "alt_km": 637.453209934416, "timestamp": "2025-12-20T03:42:47.049142+00:00", "meta": {"OBJECT_NAME": "ALOS-2", "OBJECT_ID": "2014-029A", "EPOCH": "2025-12-19T20:16:04.780128", "MEAN_MOTION": 14.7947012, "ECCENTRICITY": 0.0001445, "INCLINATION": 97.9232, "RA_OF_ASC_NODE": 88.5899, "ARG_OF_PERICENTER": 98.5313, "MEAN_ANOMALY": 261.6062, "EPHEMERIS_TYPE": 0, "CLASSIFICATION_TYPE": "U", "NORAD_CAT_ID": 39766, "ELEMENT_SET_NO": 999, "REV_AT_EPOCH": 62506, "BSTAR": 0.00029263, "MEAN_MOTION_DOT": 2.134e-05, "MEAN_MOTION_DDOT": 0}, "tle": {"line1": "1 39766U 14029A   25353.84449977  .00002134  00000+0  29263-3 0  9991", "line2": "2 39766  97.9232  88.5899 0001445  98.5313 261.6062 14.79470120625062"}}, "geometry": {"type": "Point", "coordinates": [-95.93069007980448, -31.137516971364803]}}, {"type": "Feature", "properties": {"norad_id": 40010, "name": "KAZEOSAT 2", "group": "resource", "lat": -81.70070635613108, "lon": -96.51577105920074, "alt_km": 620.65416487721, "timestamp": "2025-12-20T03:42:47.049153+00:00", "meta": {"OBJECT_NAME": "KAZEOSAT 2", "OBJECT_ID": "2014-033A", "EPOCH": "2025-12-19T20:01:04.531008", "MEAN_MOTION": 14.85177746, "ECCENTRICITY": 0.000822, "INCLINATION": 97.55, "RA_OF_ASC_NODE": 197.7819, "ARG_OF_PERICENTER": 181.8677, "MEAN_ANOMALY": 178.251, "EPHEMERIS_TYPE": 0, "CLASSIFICATION_TYPE": "U", "NORAD_CAT_ID": 40010, "ELEMENT_SET_NO": 999, "REV_AT_EPOCH": 62233, "BSTAR": 2.0057e-05, "MEAN_MOTION_DOT": 1.22e-06, "MEAN_MOTION_DDOT": 0}, "tle": {"line1": "1 40010U 14033A   25353.83408022  .00000122  00000+0  20057-4 0  9993", "line2": "2 40010  97.5500 197.7819 0008220 181.8677 178.2510 14.85177746622335"}}, "geometry": {"type": "Point", "coordinates": [-96.51577105920074, -81.70070635613108]}}, {"type": "Feature", "properties": {"norad_id": 40011, "name": "HODOYOSHI-4", "group": "resource", "lat": 61.73959489311342, "lon": 168.40678067511155, "alt_km": 606.1921225858714, "timestamp": "2025-12-20T03:42:47.049163+00:00", "meta": {"OBJECT_NAME": "HODOYOSHI-4", "OBJECT_ID": "2014-033B", "EPOCH": "2025-12-19T19:21:32.501088", "MEAN_MOTION": 14.87505151, "ECCENTRICITY": 0.0023704, "INCLINATION": 97.5405, "RA_OF_ASC_NODE": 182.3415, "ARG_OF_PERICENTER": 176.9447, "MEAN_ANOMALY": 183.1919, "EPHEMERIS_TYPE": 0, "CLASSIFICATION_TYPE": "U", "NORAD_CAT_ID": 40011, "ELEMENT_SET_NO": 999, "REV_AT_EPOCH": 62213, "BSTAR": 0.00017161, "MEAN_MOTION_DOT": 1.512e-05, "MEAN_MOTION_DDOT": 0}, "tle": {"line1": "1 40011U 14033B   25353.80662617  .00001512  00000+0  17161-3 0  9998", "line2": "2 40011  97.5405 182.3415 0023704 176.9447 183.1919 14.87505151622139"}}, "geometry": {"type": "Point", "coordinates": [168.40678067511155, 61.73959489311342]}}, {"type": "Feature", "properties": {"norad_id": 40013, "name": "DEIMOS-2", "group": "resource", "lat": 6.491998837867838, "lon": -131.16149026367833, "alt_km": 590.8822478656994, "timestamp": "2025-12-20T03:42:47.049174+00:00", "meta": {"OBJECT_NAME": "DEIMOS-2", "OBJECT_ID": "2014-033D", "EPOCH": "2025-12-19T19:38:28.820832", "MEAN_MOTION": 14.93004395, "ECCENTRICITY": 0.0001447, "INCLINATION": 97.6068, "RA_OF_ASC_NODE": 229.3847, "ARG_OF_PERICENTER": 106.4665, "MEAN_ANOMALY": 253.6714, "EPHEMERIS_TYPE": 0, "CLASSIFICATION_TYPE": "U", "NORAD_CAT_ID": 40013, "ELEMENT_SET_NO": 999, "REV_AT_EPOCH": 61095, "BSTAR": 0.00024021, "MEAN_MOTION_DOT": 2.443e-05, "MEAN_MOTION_DDOT": 0}, "tle": {"line1": "1 40013U 14033D   25353.81838913  .00002443  00000+0  24021-3 0  9992", "line2": "2 40013  97.6068 229.3847 0001447 106.4665 253.6714 14.93004395610952"}}, "geometry": {"type": "Point", "coordinates": [-131.16149026367833, 6.491998837867838]}}, {"type": "Feature", "properties": {"norad_id": 40015, "name": "HODOYOSHI-3", "group": "resource", "lat": -79.40071073531763, "lon": -154.65363711587665, "alt_km": 608.4108412647065, "timestamp": "2025-12-20T03:42:47.049184+00:00", "meta": {"OBJECT_NAME": "HODOYOSHI-3", "OBJECT_ID": "2014-033F", "EPOCH": "2025-12-19T16:45:48.556224", "MEAN_MOTION": 14.84828548, "ECCENTRICITY": 0.003219, "INCLINATION": 97.6204, "RA_OF_ASC_NODE": 159.231, "ARG_OF_PERICENTER": 224.2275, "MEAN_ANOMALY": 135.6367, "EPHEMERIS_TYPE": 0, "CLASSIFICATION_TYPE": "U", "NORAD_CAT_ID": 40015, "ELEMENT_SET_NO": 999, "REV_AT_EPOCH": 62098, "BSTAR": 0.00014158, "MEAN_MOTION_DOT": 1.161e-05, "MEAN_MOTION_DDOT": 0}, "tle": {"line1": "1 40015U 14033F   25353.69847866  .00001161  00000+0  14158-3 0  9993", "line2": "2 40015  97.6204 159.2310 0032190 224.2275 135.6367 14.84828548620988"}}, "geometry": {"type": "Point", "coordinates": [-154.65363711587665, -79.40071073531763]}}, {"type": "Feature", "properties": {"norad_id": 40053, "name": "SPOT 7", "group": "resource", "lat": 75.72180181460736, "lon": 22.078001529219712, "alt_km": 682.5035417706704, "timestamp": "2025-12-20T03:42:47.049194+00:00", "meta": {"OBJECT_NAME": "SPOT 7", "OBJECT_ID": "2014-034A", "EPOCH": "2025-12-19T20:46:50.039616", "MEAN_MOTION": 14.60741895, "ECCENTRICITY": 0.0001554, "INCLINATION": 98.0903, "RA_OF_ASC_NODE": 55.7775, "ARG_OF_PERICENTER": 84.8593, "MEAN_ANOMALY": 275.2785, "EPHEMERIS_TYPE": 0, "CLASSIFICATION_TYPE": "U", "NORAD_CAT_ID": 40053, "ELEMENT_SET_NO": 999, "REV_AT_EPOCH": 61095, "BSTAR": 6.8289e-05, "MEAN_MOTION_DOT": 2.87e-06, "MEAN_MOTION_DDOT": 0}, "tle": {"line1": "1 40053U 14034A   25353.86585694  .00000287  00000+0  68289-4 0  9996", "line2": "2 40053  98.0903  55.7775 0001554  84.8593 275.2785 14.60741895610953"}}, "geometry": {"type": "Point", "coordinates": [22.078001529219712, 75.72180181460736]}}, {"type": "Feature", "properties": {"norad_id": 40072, "name": "SKYSAT-B", "group": "resource", "lat": 2.3052715690638563, "lon": -62.08666222627087, "alt_km": 611.6728246613757, "timestamp": "2025-12-20T03:42:47.049204+00:00", "meta": {"OBJECT_NAME": "SKYSAT-B", "OBJECT_ID": "2014-037D", "EPOCH": "2025-12-19T19:37:46.870176", "MEAN_MOTION": 14.87350414, "ECCENTRICITY": 0.0006578, "INCLINATION": 98.3621, "RA_OF_ASC_NODE": 297.898, "ARG_OF_PERICENTER": 130.2703, "MEAN_ANOMALY": 229.9088, "EPHEMERIS_TYPE": 0, "CLASSIFICATION_TYPE": "U", "NORAD_CAT_ID": 40072, "ELEMENT_SET_NO": 999, "REV_AT_EPOCH": 61929, "BSTAR": 0.00013825, "MEAN_MOTION_DOT": 1.188e-05, "MEAN_MOTION_DDOT": 0}, "tle": {"line1": "1 40072U 14037D   25353.81790359  .00001188  00000+0  13825-3 0  9997", "line2": "2 40072  98.3621 297.8980 0006578 130.2703 229.9088 14.87350414619291"}}, "geometry": {"type": "Point", "coordinates": [-62.08666222627087, 2.3052715690638563]}}, {"type": "Feature", "properties": {"norad_id": 40115, "name": "WORLDVIEW-3 (WV-3)", "group": "resource", "lat": -17.393731964136524, "lon": -116.142608630957, "alt_km": 619.0314392925011, "timestamp": "2025-12-20T03:42:47.049214+00:00", "meta": {"OBJECT_NAME": "WORLDVIEW-3 (WV-3)", "OBJECT_ID": "2014-048A", "EPOCH": "2025-12-19T18:44:20.474592", "MEAN_MOTION": 14.84662657, "ECCENTRICITY": 0.0001764, "INCLINATION": 97.8772, "RA_OF_ASC_NODE": 65.9737, "ARG_OF_PERICENTER": 137.5396, "MEAN_ANOMALY": 222.5955, "EPHEMERIS_TYPE": 0, "CLASSIFICATION_TYPE": "U", "NORAD_CAT_ID": 40115, "ELEMENT_SET_NO": 999, "REV_AT_EPOCH": 61528, "BSTAR": 9.7662e-05, "MEAN_MOTION_DOT": 7.73e-06, "MEAN_MOTION_DDOT": 0}, "tle": {"line1": "1 40115U 14048A   25353.78079253  .00000773  00000+0  97662-4 0  9997", "line2": "2 40115  97.8772  65.9737 0001764 137.5396 222.5955 14.84662657615283"}}, "geometry": {"type": "Point", "coordinates": [-116.142608630957, -17.393731964136524]}}]}